[{"OBJECT_NAME":"ZHONGXING-2A","OBJECT_ID":"2012-028A","EPOCH":"2026-04-27T11:17:00.871008","MEAN_MOTION":1.00272468,"ECCENTRICITY":0.0001812,"INCLINATION":1.3249,"RA_OF_ASC_NODE":84.4932,"ARG_OF_PERICENTER":28.6409,"MEAN_ANOMALY":9.8208,"EPHEMERIS_TYPE":0,"CLASSIFICATION_TYPE":"U","NORAD_CAT_ID":38352,"ELEMENT_SET_NO":999,"REV_AT_EPOCH":5079,"BSTAR":0,"MEAN_MOTION_DOT":-3.01e-6,"MEAN_MOTION_DDOT":0},{"OBJECT_NAME":"INTELSAT 19 (IS-19)","OBJECT_ID":"2012-030A","EPOCH":"2026-04-27T11:11:40.117920","MEAN_MOTION":1.00270476,"ECCENTRICITY":0.0003287,"INCLINATION":0.0212,"RA_OF_ASC_NODE":254.343,"ARG_OF_PERICENTER":146.6243,"MEAN_ANOMALY":148.4054,"EPHEMERIS_TYPE":0,"CLASSIFICATION_TYPE":"U","NORAD_CAT_ID":38356,"ELEMENT_SET_NO":999,"REV_AT_EPOCH":4994,"BSTAR":0,"MEAN_MOTION_DOT":0,"MEAN_MOTION_DDOT":0},{"OBJECT_NAME":"ECHOSTAR 17","OBJECT_ID":"2012-035A","EPOCH":"2026-04-27T11:43:07.774752","MEAN_MOTION":1.00269076,"ECCENTRICITY":0.0002094,"INCLINATION":0.0171,"RA_OF_ASC_NODE":235.3067,"ARG_OF_PERICENTER":169.1605,"MEAN_ANOMALY":239.69,"EPHEMERIS_TYPE":0,"CLASSIFICATION_TYPE":"U","NORAD_CAT_ID":38551,"ELEMENT_SET_NO":999,"REV_AT_EPOCH":5055,"BSTAR":0,"MEAN_MOTION_DOT":0,"MEAN_MOTION_DDOT":0},{"OBJECT_NAME":"METEOSAT-10 (MSG-3)","OBJECT_ID":"2012-035B","EPOCH":"2026-04-27T02:53:38.770368","MEAN_MOTION":1.00268137,"ECCENTRICITY":0.00020965,"INCLINATION":4.5534,"RA_OF_ASC_NODE":61.2362,"ARG_OF_PERICENTER":313.1941,"MEAN_ANOMALY":244.2674,"EPHEMERIS_TYPE":0,"CLASSIFICATION_TYPE":"U","NORAD_CAT_ID":38552,"ELEMENT_SET_NO":999,"REV_AT_EPOCH":5034,"BSTAR":0,"MEAN_MOTION_DOT":-1.4e-7,"MEAN_MOTION_DDOT":0},{"OBJECT_NAME":"SES-5","OBJECT_ID":"2012-036A","EPOCH":"2026-04-27T05:20:38.796000","MEAN_MOTION":1.00271777,"ECCENTRICITY":0.0001946,"INCLINATION":0.0599,"RA_OF_ASC_NODE":300.3439,"ARG_OF_PERICENTER":94.9629,"MEAN_ANOMALY":265.0472,"EPHEMERIS_TYPE":0,"CLASSIFICATION_TYPE":"U","NORAD_CAT_ID":38652,"ELEMENT_SET_NO":999,"REV_AT_EPOCH":4394,"BSTAR":0,"MEAN_MOTION_DOT":2.4e-7,"MEAN_MOTION_DDOT":0},{"OBJECT_NAME":"INTELSAT 20 (IS-20)","OBJECT_ID":"2012-043A","EPOCH":"2026-04-27T04:16:38.848224","MEAN_MOTION":1.00272208,"ECCENTRICITY":0.0002112,"INCLINATION":0.0198,"RA_OF_ASC_NODE":149.3428,"ARG_OF_PERICENTER":28.3679,"MEAN_ANOMALY":170.1087,"EPHEMERIS_TYPE":0,"CLASSIFICATION_TYPE":"U","NORAD_CAT_ID":38740,"ELEMENT_SET_NO":999,"REV_AT_EPOCH":5023,"BSTAR":0,"MEAN_MOTION_DOT":-3.5e-7,"MEAN_MOTION_DDOT":0},{"OBJECT_NAME":"HYLAS 2","OBJECT_ID":"2012-043B","EPOCH":"2026-04-27T11:34:14.500992","MEAN_MOTION":1.00271606,"ECCENTRICITY":0.0002749,"INCLINATION":2.2983,"RA_OF_ASC_NODE":81.6564,"ARG_OF_PERICENTER":338.404,"MEAN_ANOMALY":256.4167,"EPHEMERIS_TYPE":0,"CLASSIFICATION_TYPE":"U","NORAD_CAT_ID":38741,"ELEMENT_SET_NO":999,"REV_AT_EPOCH":5026,"BSTAR":0,"MEAN_MOTION_DOT":-2.65e-6,"MEAN_MOTION_DDOT":0},{"OBJECT_NAME":"INTELSAT 21 (IS-21)","OBJECT_ID":"2012-045A","EPOCH":"2026-04-27T09:57:13.598208","MEAN_MOTION":1.00273153,"ECCENTRICITY":0.000219,"INCLINATION":0.022,"RA_OF_ASC_NODE":250.3641,"ARG_OF_PERICENTER":160.9016,"MEAN_ANOMALY":255.4481,"EPHEMERIS_TYPE":0,"CLASSIFICATION_TYPE":"U","NORAD_CAT_ID":38749,"ELEMENT_SET_NO":999,"REV_AT_EPOCH":5001,"BSTAR":0,"MEAN_MOTION_DOT":0,"MEAN_MOTION_DDOT":0},{"OBJECT_NAME":"ASTRA 2F","OBJECT_ID":"2012-051A","EPOCH":"2026-04-27T07:37:38.753760","MEAN_MOTION":1.00272178,"ECCENTRICITY":4.14e-5,"INCLINATION":0.0345,"RA_OF_ASC_NODE":249.3471,"ARG_OF_PERICENTER":15.3657,"MEAN_ANOMALY":93.2068,"EPHEMERIS_TYPE":0,"CLASSIFICATION_TYPE":"U","NORAD_CAT_ID":38778,"ELEMENT_SET_NO":999,"REV_AT_EPOCH":4062,"BSTAR":0,"MEAN_MOTION_DOT":1.4e-6,"MEAN_MOTION_DDOT":0},{"OBJECT_NAME":"GSAT-10","OBJECT_ID":"2012-051B","EPOCH":"2026-04-27T08:28:38.538048","MEAN_MOTION":1.00269995,"ECCENTRICITY":0.0007053,"INCLINATION":0.0217,"RA_OF_ASC_NODE":263.2245,"ARG_OF_PERICENTER":178.7543,"MEAN_ANOMALY":343.4864,"EPHEMERIS_TYPE":0,"CLASSIFICATION_TYPE":"U","NORAD_CAT_ID":38779,"ELEMENT_SET_NO":999,"REV_AT_EPOCH":4958,"BSTAR":0,"MEAN_MOTION_DOT":-1.74e-6,"MEAN_MOTION_DDOT":0},{"OBJECT_NAME":"INTELSAT 23 (IS-23)","OBJECT_ID":"2012-057A","EPOCH":"2026-04-27T01:17:42.266688","MEAN_MOTION":1.00275519,"ECCENTRICITY":3.099e-5,"INCLINATION":0.0196,"RA_OF_ASC_NODE":265.2605,"ARG_OF_PERICENTER":345.5296,"MEAN_ANOMALY":290.6693,"EPHEMERIS_TYPE":0,"CLASSIFICATION_TYPE":"U","NORAD_CAT_ID":38867,"ELEMENT_SET_NO":999,"REV_AT_EPOCH":4944,"BSTAR":0,"MEAN_MOTION_DOT":-2.95e-6,"MEAN_MOTION_DDOT":0},{"OBJECT_NAME":"BEIDOU-2 G6","OBJECT_ID":"2012-059A","EPOCH":"2026-04-27T00:13:55.883712","MEAN_MOTION":1.00274553,"ECCENTRICITY":0.00105943,"INCLINATION":4.2943,"RA_OF_ASC_NODE":74.0523,"ARG_OF_PERICENTER":314.3518,"MEAN_ANOMALY":274.035,"EPHEMERIS_TYPE":0,"CLASSIFICATION_TYPE":"U","NORAD_CAT_ID":38953,"ELEMENT_SET_NO":999,"REV_AT_EPOCH":4939,"BSTAR":0,"MEAN_MOTION_DOT":-1.83e-6,"MEAN_MOTION_DDOT":0},{"OBJECT_NAME":"LUCH-5B","OBJECT_ID":"2012-061A","EPOCH":"2026-04-27T01:28:11.261280","MEAN_MOTION":1.00271707,"ECCENTRICITY":0.00017183,"INCLINATION":10.3768,"RA_OF_ASC_NODE":50.3818,"ARG_OF_PERICENTER":214.0239,"MEAN_ANOMALY":316.4236,"EPHEMERIS_TYPE":0,"CLASSIFICATION_TYPE":"U","NORAD_CAT_ID":38977,"ELEMENT_SET_NO":999,"REV_AT_EPOCH":4909,"BSTAR":0,"MEAN_MOTION_DOT":-1.43e-6,"MEAN_MOTION_DDOT":0},{"OBJECT_NAME":"YAMAL 300K","OBJECT_ID":"2012-061B","EPOCH":"2026-04-27T11:17:39.109920","MEAN_MOTION":1.00270436,"ECCENTRICITY":3.27e-5,"INCLINATION":0.0018,"RA_OF_ASC_NODE":295.7171,"ARG_OF_PERICENTER":8.0706,"MEAN_ANOMALY":264.0178,"EPHEMERIS_TYPE":0,"CLASSIFICATION_TYPE":"U","NORAD_CAT_ID":38978,"ELEMENT_SET_NO":999,"REV_AT_EPOCH":4912,"BSTAR":0,"MEAN_MOTION_DOT":6.2e-7,"MEAN_MOTION_DDOT":0},{"OBJECT_NAME":"STAR ONE C3","OBJECT_ID":"2012-062A","EPOCH":"2026-04-27T11:32:58.123392","MEAN_MOTION":1.00272332,"ECCENTRICITY":0.0002475,"INCLINATION":0.0143,"RA_OF_ASC_NODE":272.8497,"ARG_OF_PERICENTER":142.1564,"MEAN_ANOMALY":258.7054,"EPHEMERIS_TYPE":0,"CLASSIFICATION_TYPE":"U","NORAD_CAT_ID":38991,"ELEMENT_SET_NO":999,"REV_AT_EPOCH":4925,"BSTAR":0,"MEAN_MOTION_DOT":-2.58e-6,"MEAN_MOTION_DDOT":0},{"OBJECT_NAME":"EUTELSAT 21B","OBJECT_ID":"2012-062B","EPOCH":"2026-04-27T07:37:38.753760","MEAN_MOTION":1.00270663,"ECCENTRICITY":0.0002918,"INCLINATION":0.0708,"RA_OF_ASC_NODE":358.7263,"ARG_OF_PERICENTER":37.2552,"MEAN_ANOMALY":315.335,"EPHEMERIS_TYPE":0,"CLASSIFICATION_TYPE":"U","NORAD_CAT_ID":38992,"ELEMENT_SET_NO":999,"REV_AT_EPOCH":4931,"BSTAR":0,"MEAN_MOTION_DOT":1.2e-6,"MEAN_MOTION_DDOT":0},{"OBJECT_NAME":"ECHOSTAR 16","OBJECT_ID":"2012-065A","EPOCH":"2026-04-27T08:57:45.220320","MEAN_MOTION":1.00268833,"ECCENTRICITY":0.0002148,"INCLINATION":0.0155,"RA_OF_ASC_NODE":236.4967,"ARG_OF_PERICENTER":165.5603,"MEAN_ANOMALY":246.2456,"EPHEMERIS_TYPE":0,"CLASSIFICATION_TYPE":"U","NORAD_CAT_ID":39008,"ELEMENT_SET_NO":999,"REV_AT_EPOCH":4913,"BSTAR":0,"MEAN_MOTION_DOT":0,"MEAN_MOTION_DDOT":0}]
