ZHONGXING-2A            
1 38352U 12028A   26117.47014897 -.00000301  00000+0  00000+0 0  9994
2 38352   1.3249  84.4932 0001812  28.6409   9.8208  1.00272468 50791
INTELSAT 19 (IS-19)     
1 38356U 12030A   26117.46643655  .00000000  00000+0  00000+0 0  9995
2 38356   0.0212 254.3430 0003287 146.6243 148.4054  1.00270476 49948
ECHOSTAR 17             
1 38551U 12035A   26117.48828443  .00000000  00000+0  00000+0 0  9999
2 38551   0.0171 235.3067 0002094 169.1605 239.6900  1.00269076 50557
METEOSAT-10 (MSG-3)     
1 38552U 12035B   26117.12058762 -.00000014  00000+0  00000+0 0  9996
2 38552   4.5534  61.2362 0002096 313.1941 244.2674  1.00268137 50344
SES-5                   
1 38652U 12036A   26117.22267125  .00000024  00000+0  00000+0 0  9994
2 38652   0.0599 300.3439 0001946  94.9629 265.0472  1.00271777 43948
INTELSAT 20 (IS-20)     
1 38740U 12043A   26117.17822741 -.00000035  00000+0  00000+0 0  9998
2 38740   0.0198 149.3428 0002112  28.3679 170.1087  1.00272208 50230
HYLAS 2                 
1 38741U 12043B   26117.48211228 -.00000265  00000+0  00000+0 0  9990
2 38741   2.2983  81.6564 0002749 338.4040 256.4167  1.00271606 50260
INTELSAT 21 (IS-21)     
1 38749U 12045A   26117.41474072  .00000000  00000+0  00000+0 0  9997
2 38749   0.0220 250.3641 0002190 160.9016 255.4481  1.00273153 50010
ASTRA 2F                
1 38778U 12051A   26117.31780965  .00000140  00000+0  00000+0 0  9991
2 38778   0.0345 249.3471 0000414  15.3657  93.2068  1.00272178 40621
GSAT-10                 
1 38779U 12051B   26117.35322382 -.00000174  00000+0  00000+0 0  9999
2 38779   0.0217 263.2245 0007053 178.7543 343.4864  1.00269995 49589
INTELSAT 23 (IS-23)     
1 38867U 12057A   26117.05396142 -.00000295  00000+0  00000+0 0  9999
2 38867   0.0196 265.2605 0000309 345.5296 290.6693  1.00275519 49448
BEIDOU-2 G6             
1 38953U 12059A   26117.00967458 -.00000183  00000+0  00000+0 0  9992
2 38953   4.2943  74.0523 0010594 314.3518 274.0350  1.00274553 49390
LUCH-5B                 
1 38977U 12061A   26117.06124145 -.00000143  00000+0  00000+0 0  9991
2 38977  10.3768  50.3818 0001718 214.0239 316.4236  1.00271707 49096
YAMAL 300K              
1 38978U 12061B   26117.47059155  .00000062  00000+0  00000+0 0  9994
2 38978   0.0018 295.7171 0000327   8.0706 264.0178  1.00270436 49128
STAR ONE C3             
1 38991U 12062A   26117.48122828 -.00000258  00000+0  00000+0 0  9997
2 38991   0.0143 272.8497 0002475 142.1564 258.7054  1.00272332 49251
EUTELSAT 21B            
1 38992U 12062B   26117.31780965  .00000120  00000+0  00000+0 0  9999
2 38992   0.0708 358.7263 0002918  37.2552 315.3350  1.00270663 49318
ECHOSTAR 16             
1 39008U 12065A   26117.37344005  .00000000  00000+0  00000+0 0  9995
2 39008   0.0155 236.4967 0002148 165.5603 246.2456  1.00268833 49138
